IRIDIUM 7               
1 24793U 97020B   25362.79697681  .00000512  00000+0  16907-3 0  9997
2 24793  86.3960  95.3642 0002075 105.3309 254.8117 14.36120182499821
IRIDIUM 5               
1 24795U 97020D   25362.70356166  .00004760  00000+0  37044-3 0  9994
2 24795  86.3880 353.8729 0105033 157.6030 202.9838 14.96640231514539
IRIDIUM 4               
1 24796U 97020E   25362.79755519  .00000536  00000+0  17414-3 0  9995
2 24796  86.3953  92.1098 0002031  98.7955 261.3473 14.37026595500410
IRIDIUM 914             
1 24836U 97030A   25362.81041440  .00000594  00000+0  17840-3 0  9992
2 24836  86.3938 100.1339 0000863  55.3796 304.7485 14.41085285635150
IRIDIUM 16              
1 24841U 97030F   25362.78538653  .00000670  00000+0  21118-3 0  9999
2 24841  86.4050 123.5743 0003799 121.7353 238.4216 14.38905124494986
IRIDIUM 911             
1 24842U 97030G   25362.81772630  .00000902  00000+0  23776-3 0  9999
2 24842  86.4472 122.1154 0014855 160.9734 199.2028 14.47916959503242
IRIDIUM 17              
1 24870U 97034B   25362.82103691  .00000663  00000+0  21258-3 0  9997
2 24870  86.3982 152.9779 0003682  94.4826 265.6793 14.38039995491554
IRIDIUM 920             
1 24871U 97034C   25362.84992735  .00000687  00000+0  20432-3 0  9994
2 24871  86.3992 131.7520 0012531 150.9169 209.2731 14.41746487494628
